{
  "type": "Feature",
  "geometry": {
    "type": "MultiPolygon",
    "coordinates": [
      [
        [
          [
            3146,
            6038
          ],
          [
            3007,
            6005
          ],
          [
            2935,
            5971
          ],
          [
            2933,
            5969
          ],
          [
            2929,
            5961
          ],
          [
            2926,
            5949
          ],
          [
            2970,
            5902
          ],
          [
            3034,
            5877
          ],
          [
            3124,
            5872
          ],
          [
            3164,
            5871
          ],
          [
            3189,
            5876
          ],
          [
            3198,
            5878
          ],
          [
            3218,
            5917
          ],
          [
            3224,
            5930
          ],
          [
            3217,
            5962
          ],
          [
            3208,
            5991
          ],
          [
            3194,
            6012
          ],
          [
            3164,
            6033
          ],
          [
            3146,
            6038
          ]
        ]
      ],
      [
        [
          [
            4331,
            4397
          ],
          [
            4321,
            4283
          ],
          [
            4350,
            4277
          ],
          [
            4436,
            4268
          ],
          [
            4496,
            4285
          ],
          [
            4616,
            4323
          ],
          [
            4634,
            4330
          ],
          [
            4634,
            4335
          ],
          [
            4624,
            4444
          ],
          [
            4622,
            4451
          ],
          [
            4615,
            4462
          ],
          [
            4596,
            4480
          ],
          [
            4550,
            4499
          ],
          [
            4518,
            4494
          ],
          [
            4347,
            4413
          ],
          [
            4331,
            4397
          ]
        ]
      ],
      [
        [
          [
            4525,
            4016
          ],
          [
            4507,
            3972
          ],
          [
            4514,
            3955
          ],
          [
            4518,
            3954
          ],
          [
            4546,
            3953
          ],
          [
            4577,
            3956
          ],
          [
            4614,
            3964
          ],
          [
            4630,
            4010
          ],
          [
            4631,
            4035
          ],
          [
            4623,
            4051
          ],
          [
            4619,
            4054
          ],
          [
            4595,
            4068
          ],
          [
            4583,
            4070
          ],
          [
            4580,
            4069
          ],
          [
            4565,
            4061
          ],
          [
            4561,
            4058
          ],
          [
            4525,
            4016
          ]
        ]
      ],
      [
        [
          [
            3492,
            3736
          ],
          [
            3462,
            3462
          ],
          [
            3799,
            3257
          ],
          [
            3823,
            3248
          ],
          [
            3844,
            3250
          ],
          [
            4334,
            3314
          ],
          [
            4357,
            3325
          ],
          [
            4361,
            3328
          ],
          [
            4465,
            3409
          ],
          [
            4466,
            3881
          ],
          [
            4466,
            3896
          ],
          [
            4459,
            3914
          ],
          [
            4399,
            4040
          ],
          [
            4176,
            4256
          ],
          [
            4074,
            4347
          ],
          [
            4049,
            4356
          ],
          [
            3861,
            4280
          ],
          [
            3848,
            4274
          ],
          [
            3649,
            4051
          ],
          [
            3492,
            3736
          ]
        ]
      ],
      [
        [
          [
            3504,
            6217
          ],
          [
            3643,
            5968
          ],
          [
            3686,
            5923
          ],
          [
            3717,
            5911
          ],
          [
            3758,
            5899
          ],
          [
            3800,
            5893
          ],
          [
            3846,
            5896
          ],
          [
            3894,
            5900
          ],
          [
            3895,
            5901
          ],
          [
            3951,
            6051
          ],
          [
            3981,
            6166
          ],
          [
            3969,
            6233
          ],
          [
            3920,
            6293
          ],
          [
            3884,
            6331
          ],
          [
            3760,
            6400
          ],
          [
            3585,
            6389
          ],
          [
            3580,
            6387
          ],
          [
            3534,
            6331
          ],
          [
            3514,
            6299
          ],
          [
            3502,
            6224
          ],
          [
            3503,
            6219
          ],
          [
            3504,
            6217
          ]
        ]
      ],
      [
        [
          [
            3317,
            6167
          ],
          [
            3323,
            6048
          ],
          [
            3326,
            6041
          ],
          [
            3330,
            6038
          ],
          [
            3349,
            6035
          ],
          [
            3359,
            6037
          ],
          [
            3448,
            6072
          ],
          [
            3451,
            6079
          ],
          [
            3452,
            6085
          ],
          [
            3439,
            6138
          ],
          [
            3435,
            6153
          ],
          [
            3434,
            6155
          ],
          [
            3429,
            6162
          ],
          [
            3410,
            6169
          ],
          [
            3389,
            6173
          ],
          [
            3317,
            6167
          ]
        ]
      ],
      [
        [
          [
            3686,
            5793
          ],
          [
            3621,
            5650
          ],
          [
            3631,
            5628
          ],
          [
            3662,
            5625
          ],
          [
            3842,
            5676
          ],
          [
            3851,
            5701
          ],
          [
            3863,
            5737
          ],
          [
            3870,
            5774
          ],
          [
            3869,
            5780
          ],
          [
            3867,
            5782
          ],
          [
            3825,
            5806
          ],
          [
            3722,
            5826
          ],
          [
            3715,
            5826
          ],
          [
            3702,
            5812
          ],
          [
            3686,
            5793
          ]
        ]
      ],
      [
        [
          [
            4542,
            6208
          ],
          [
            4496,
            6144
          ],
          [
            4500,
            6083
          ],
          [
            4509,
            6062
          ],
          [
            4530,
            6039
          ],
          [
            4551,
            6025
          ],
          [
            4560,
            6021
          ],
          [
            4658,
            5994
          ],
          [
            4704,
            5992
          ],
          [
            4717,
            5995
          ],
          [
            4719,
            5996
          ],
          [
            4725,
            6001
          ],
          [
            4736,
            6029
          ],
          [
            4742,
            6045
          ],
          [
            4757,
            6109
          ],
          [
            4759,
            6120
          ],
          [
            4757,
            6124
          ],
          [
            4747,
            6132
          ],
          [
            4596,
            6209
          ],
          [
            4580,
            6212
          ],
          [
            4561,
            6213
          ],
          [
            4542,
            6208
          ]
        ]
      ],
      [
        [
          [
            3864,
            3976
          ],
          [
            3861,
            3970
          ],
          [
            3864,
            3960
          ],
          [
            3870,
            3959
          ],
          [
            3878,
            3959
          ],
          [
            3876,
            3972
          ],
          [
            3864,
            3976
          ]
        ]
      ],
      [
        [
          [
            3686,
            3208
          ],
          [
            3618,
            3315
          ],
          [
            3584,
            3310
          ],
          [
            3513,
            3278
          ],
          [
            3494,
            3256
          ],
          [
            3495,
            3227
          ],
          [
            3519,
            3161
          ],
          [
            3524,
            3155
          ],
          [
            3543,
            3147
          ],
          [
            3603,
            3138
          ],
          [
            3610,
            3137
          ],
          [
            3655,
            3141
          ],
          [
            3679,
            3175
          ],
          [
            3684,
            3191
          ],
          [
            3686,
            3208
          ]
        ]
      ],
      [
        [
          [
            3480,
            4984
          ],
          [
            3527,
            4509
          ],
          [
            3531,
            4496
          ],
          [
            3536,
            4484
          ],
          [
            3546,
            4472
          ],
          [
            3645,
            4427
          ],
          [
            3649,
            4427
          ],
          [
            3672,
            4431
          ],
          [
            3719,
            4444
          ],
          [
            3789,
            4471
          ],
          [
            3812,
            4483
          ],
          [
            4114,
            4761
          ],
          [
            4136,
            4790
          ],
          [
            4136,
            4795
          ],
          [
            4134,
            4804
          ],
          [
            4120,
            4846
          ],
          [
            4102,
            4897
          ],
          [
            4014,
            5092
          ],
          [
            3853,
            5192
          ],
          [
            3801,
            5205
          ],
          [
            3628,
            5154
          ],
          [
            3603,
            5144
          ],
          [
            3555,
            5121
          ],
          [
            3494,
            5074
          ],
          [
            3480,
            4984
          ]
        ]
      ],
      [
        [
          [
            4474,
            4104
          ],
          [
            4615,
            4145
          ],
          [
            4603,
            4163
          ],
          [
            4593,
            4177
          ],
          [
            4559,
            4182
          ],
          [
            4474,
            4194
          ],
          [
            4445,
            4188
          ],
          [
            4406,
            4176
          ],
          [
            4392,
            4165
          ],
          [
            4388,
            4158
          ],
          [
            4393,
            4132
          ],
          [
            4395,
            4127
          ],
          [
            4399,
            4121
          ],
          [
            4405,
            4116
          ],
          [
            4437,
            4103
          ],
          [
            4474,
            4104
          ]
        ]
      ],
      [
        [
          [
            4443,
            5622
          ],
          [
            4434,
            5587
          ],
          [
            4439,
            5580
          ],
          [
            4443,
            5576
          ],
          [
            4445,
            5575
          ],
          [
            4463,
            5569
          ],
          [
            4476,
            5571
          ],
          [
            4496,
            5583
          ],
          [
            4496,
            5588
          ],
          [
            4475,
            5621
          ],
          [
            4443,
            5622
          ]
        ]
      ],
      [
        [
          [
            3660,
            4197
          ],
          [
            3678,
            4187
          ],
          [
            3725,
            4201
          ],
          [
            3735,
            4207
          ],
          [
            3748,
            4227
          ],
          [
            3744,
            4244
          ],
          [
            3728,
            4252
          ],
          [
            3709,
            4256
          ],
          [
            3699,
            4257
          ],
          [
            3682,
            4253
          ],
          [
            3673,
            4249
          ],
          [
            3648,
            4237
          ],
          [
            3642,
            4233
          ],
          [
            3637,
            4227
          ],
          [
            3640,
            4219
          ],
          [
            3660,
            4197
          ]
        ]
      ],
      [
        [
          [
            3483,
            5836
          ],
          [
            3434,
            5844
          ],
          [
            3364,
            5824
          ],
          [
            3349,
            5814
          ],
          [
            3325,
            5782
          ],
          [
            3322,
            5763
          ],
          [
            3326,
            5751
          ],
          [
            3328,
            5746
          ],
          [
            3337,
            5731
          ],
          [
            3349,
            5728
          ],
          [
            3374,
            5726
          ],
          [
            3413,
            5726
          ],
          [
            3428,
            5729
          ],
          [
            3442,
            5733
          ],
          [
            3464,
            5747
          ],
          [
            3496,
            5784
          ],
          [
            3499,
            5807
          ],
          [
            3494,
            5824
          ],
          [
            3483,
            5836
          ]
        ]
      ],
      [
        [
          [
            4182,
            6112
          ],
          [
            4145,
            6175
          ],
          [
            4136,
            6176
          ],
          [
            4104,
            6167
          ],
          [
            4066,
            6153
          ],
          [
            4059,
            6149
          ],
          [
            4053,
            6132
          ],
          [
            4064,
            6108
          ],
          [
            4126,
            6065
          ],
          [
            4148,
            6062
          ],
          [
            4158,
            6067
          ],
          [
            4170,
            6079
          ],
          [
            4177,
            6092
          ],
          [
            4182,
            6112
          ]
        ]
      ],
      [
        [
          [
            3943,
            3296
          ],
          [
            3962,
            3252
          ],
          [
            3974,
            3242
          ],
          [
            3979,
            3239
          ],
          [
            3988,
            3238
          ],
          [
            4004,
            3240
          ],
          [
            4014,
            3242
          ],
          [
            4165,
            3275
          ],
          [
            4166,
            3303
          ],
          [
            4159,
            3312
          ],
          [
            4142,
            3318
          ],
          [
            4124,
            3322
          ],
          [
            4018,
            3339
          ],
          [
            4004,
            3337
          ],
          [
            3998,
            3335
          ],
          [
            3948,
            3308
          ],
          [
            3943,
            3296
          ]
        ]
      ],
      [
        [
          [
            4300,
            6216
          ],
          [
            4292,
            6294
          ],
          [
            4260,
            6311
          ],
          [
            4201,
            6310
          ],
          [
            4185,
            6308
          ],
          [
            4160,
            6304
          ],
          [
            4137,
            6281
          ],
          [
            4127,
            6263
          ],
          [
            4148,
            6230
          ],
          [
            4167,
            6221
          ],
          [
            4283,
            6195
          ],
          [
            4299,
            6207
          ],
          [
            4300,
            6216
          ]
        ]
      ],
      [
        [
          [
            4540,
            4697
          ],
          [
            4499,
            4671
          ],
          [
            4495,
            4667
          ],
          [
            4482,
            4647
          ],
          [
            4483,
            4592
          ],
          [
            4487,
            4585
          ],
          [
            4509,
            4576
          ],
          [
            4527,
            4575
          ],
          [
            4554,
            4591
          ],
          [
            4561,
            4596
          ],
          [
            4572,
            4609
          ],
          [
            4595,
            4639
          ],
          [
            4605,
            4661
          ],
          [
            4602,
            4667
          ],
          [
            4599,
            4672
          ],
          [
            4588,
            4688
          ],
          [
            4540,
            4697
          ]
        ]
      ],
      [
        [
          [
            3918,
            5296
          ],
          [
            3944,
            5265
          ],
          [
            3954,
            5261
          ],
          [
            3988,
            5248
          ],
          [
            4007,
            5258
          ],
          [
            4035,
            5277
          ],
          [
            4043,
            5289
          ],
          [
            4051,
            5306
          ],
          [
            4050,
            5329
          ],
          [
            4047,
            5343
          ],
          [
            4046,
            5344
          ],
          [
            4027,
            5362
          ],
          [
            4012,
            5371
          ],
          [
            3977,
            5366
          ],
          [
            3971,
            5364
          ],
          [
            3944,
            5351
          ],
          [
            3922,
            5332
          ],
          [
            3918,
            5296
          ]
        ]
      ],
      [
        [
          [
            4418,
            5217
          ],
          [
            4411,
            5195
          ],
          [
            4426,
            5184
          ],
          [
            4433,
            5180
          ],
          [
            4436,
            5183
          ],
          [
            4440,
            5188
          ],
          [
            4448,
            5206
          ],
          [
            4439,
            5223
          ],
          [
            4418,
            5217
          ]
        ]
      ],
      [
        [
          [
            3554,
            4160
          ],
          [
            3548,
            4175
          ],
          [
            3544,
            4179
          ],
          [
            3524,
            4179
          ],
          [
            3519,
            4176
          ],
          [
            3515,
            4170
          ],
          [
            3512,
            4153
          ],
          [
            3514,
            4146
          ],
          [
            3520,
            4144
          ],
          [
            3553,
            4144
          ],
          [
            3554,
            4150
          ],
          [
            3554,
            4160
          ]
        ]
      ],
      [
        [
          [
            3375,
            5513
          ],
          [
            3378,
            5417
          ],
          [
            3407,
            5384
          ],
          [
            3441,
            5364
          ],
          [
            3478,
            5364
          ],
          [
            3492,
            5367
          ],
          [
            3514,
            5377
          ],
          [
            3520,
            5381
          ],
          [
            3542,
            5404
          ],
          [
            3550,
            5422
          ],
          [
            3546,
            5445
          ],
          [
            3519,
            5501
          ],
          [
            3500,
            5515
          ],
          [
            3470,
            5524
          ],
          [
            3429,
            5530
          ],
          [
            3410,
            5532
          ],
          [
            3395,
            5525
          ],
          [
            3375,
            5513
          ]
        ]
      ],
      [
        [
          [
            4577,
            3237
          ],
          [
            4655,
            3224
          ],
          [
            4675,
            3225
          ],
          [
            4692,
            3236
          ],
          [
            4694,
            3255
          ],
          [
            4697,
            3311
          ],
          [
            4695,
            3322
          ],
          [
            4691,
            3335
          ],
          [
            4682,
            3345
          ],
          [
            4669,
            3351
          ],
          [
            4647,
            3356
          ],
          [
            4567,
            3362
          ],
          [
            4526,
            3365
          ],
          [
            4517,
            3365
          ],
          [
            4507,
            3360
          ],
          [
            4475,
            3313
          ],
          [
            4481,
            3301
          ],
          [
            4489,
            3294
          ],
          [
            4501,
            3284
          ],
          [
            4577,
            3237
          ]
        ]
      ],
      [
        [
          [
            3226,
            5048
          ],
          [
            3246,
            5055
          ],
          [
            3233,
            5066
          ],
          [
            3226,
            5048
          ]
        ]
      ],
      [
        [
          [
            4267,
            5745
          ],
          [
            4259,
            5840
          ],
          [
            4165,
            5997
          ],
          [
            4135,
            5997
          ],
          [
            4117,
            5995
          ],
          [
            4092,
            5982
          ],
          [
            4077,
            5966
          ],
          [
            4060,
            5943
          ],
          [
            4049,
            5927
          ],
          [
            4012,
            5827
          ],
          [
            4012,
            5810
          ],
          [
            4060,
            5660
          ],
          [
            4074,
            5653
          ],
          [
            4124,
            5636
          ],
          [
            4131,
            5636
          ],
          [
            4173,
            5639
          ],
          [
            4234,
            5690
          ],
          [
            4247,
            5703
          ],
          [
            4260,
            5723
          ],
          [
            4266,
            5737
          ],
          [
            4267,
            5745
          ]
        ]
      ],
      [
        [
          [
            4495,
            3716
          ],
          [
            4525,
            3645
          ],
          [
            4539,
            3623
          ],
          [
            4544,
            3622
          ],
          [
            4659,
            3624
          ],
          [
            4695,
            3649
          ],
          [
            4697,
            3720
          ],
          [
            4693,
            3728
          ],
          [
            4627,
            3790
          ],
          [
            4585,
            3792
          ],
          [
            4583,
            3792
          ],
          [
            4526,
            3752
          ],
          [
            4495,
            3716
          ]
        ]
      ],
      [
        [
          [
            3389,
            4865
          ],
          [
            3342,
            4861
          ],
          [
            3345,
            4856
          ],
          [
            3373,
            4820
          ],
          [
            3393,
            4817
          ],
          [
            3393,
            4827
          ],
          [
            3389,
            4865
          ]
        ]
      ],
      [
        [
          [
            4161,
            4728
          ],
          [
            4133,
            4700
          ],
          [
            4136,
            4693
          ],
          [
            4150,
            4672
          ],
          [
            4156,
            4672
          ],
          [
            4166,
            4685
          ],
          [
            4178,
            4706
          ],
          [
            4168,
            4724
          ],
          [
            4161,
            4728
          ]
        ]
      ],
      [
        [
          [
            4692,
            3511
          ],
          [
            4664,
            3483
          ],
          [
            4667,
            3476
          ],
          [
            4681,
            3455
          ],
          [
            4687,
            3455
          ],
          [
            4697,
            3468
          ],
          [
            4709,
            3489
          ],
          [
            4699,
            3507
          ],
          [
            4692,
            3511
          ]
        ]
      ],
      [
        [
          [
            4424,
            5733
          ],
          [
            4422,
            5740
          ],
          [
            4411,
            5740
          ],
          [
            4410,
            5733
          ],
          [
            4410,
            5727
          ],
          [
            4411,
            5720
          ],
          [
            4415,
            5719
          ],
          [
            4421,
            5719
          ],
          [
            4423,
            5721
          ],
          [
            4424,
            5725
          ],
          [
            4424,
            5733
          ]
        ]
      ],
      [
        [
          [
            4408,
            5828
          ],
          [
            4439,
            5850
          ],
          [
            4438,
            5872
          ],
          [
            4423,
            5909
          ],
          [
            4398,
            5946
          ],
          [
            4366,
            5964
          ],
          [
            4344,
            5970
          ],
          [
            4284,
            5972
          ],
          [
            4277,
            5956
          ],
          [
            4288,
            5914
          ],
          [
            4301,
            5891
          ],
          [
            4327,
            5875
          ],
          [
            4391,
            5836
          ],
          [
            4408,
            5828
          ]
        ]
      ],
      [
        [
          [
            3760,
            5515
          ],
          [
            3716,
            5510
          ],
          [
            3707,
            5499
          ],
          [
            3683,
            5452
          ],
          [
            3664,
            5411
          ],
          [
            3678,
            5351
          ],
          [
            3755,
            5338
          ],
          [
            3776,
            5337
          ],
          [
            3826,
            5397
          ],
          [
            3827,
            5426
          ],
          [
            3820,
            5478
          ],
          [
            3811,
            5486
          ],
          [
            3796,
            5499
          ],
          [
            3760,
            5515
          ]
        ]
      ],
      [
        [
          [
            4673,
            5591
          ],
          [
            4673,
            5599
          ],
          [
            4659,
            5600
          ],
          [
            4651,
            5600
          ],
          [
            4643,
            5596
          ],
          [
            4644,
            5593
          ],
          [
            4651,
            5591
          ],
          [
            4673,
            5591
          ]
        ]
      ],
      [
        [
          [
            4024,
            4606
          ],
          [
            3975,
            4593
          ],
          [
            4005,
            4516
          ],
          [
            4023,
            4487
          ],
          [
            4026,
            4483
          ],
          [
            4035,
            4473
          ],
          [
            4128,
            4472
          ],
          [
            4193,
            4493
          ],
          [
            4196,
            4494
          ],
          [
            4211,
            4500
          ],
          [
            4216,
            4503
          ],
          [
            4218,
            4512
          ],
          [
            4188,
            4581
          ],
          [
            4182,
            4592
          ],
          [
            4172,
            4600
          ],
          [
            4168,
            4602
          ],
          [
            4159,
            4606
          ],
          [
            4024,
            4606
          ]
        ]
      ],
      [
        [
          [
            3996,
            5494
          ],
          [
            4028,
            5463
          ],
          [
            4038,
            5462
          ],
          [
            4088,
            5461
          ],
          [
            4103,
            5482
          ],
          [
            4109,
            5506
          ],
          [
            4109,
            5529
          ],
          [
            4082,
            5546
          ],
          [
            4059,
            5552
          ],
          [
            4054,
            5553
          ],
          [
            4031,
            5546
          ],
          [
            4025,
            5544
          ],
          [
            4013,
            5534
          ],
          [
            3998,
            5500
          ],
          [
            3996,
            5494
          ]
        ]
      ]
    ]
  },
  "properties": {
    "name": "Islands Area",
    "total_islands": 36
  }
}