{
  "type": "Feature",
  "geometry": {
    "type": "MultiPolygon",
    "coordinates": [
      [
        [
          [
            3938,
            30295
          ],
          [
            3942,
            30325
          ],
          [
            3831,
            30541
          ],
          [
            3827,
            30546
          ],
          [
            3071,
            30960
          ],
          [
            3061,
            30965
          ],
          [
            2927,
            31000
          ],
          [
            2872,
            30968
          ],
          [
            2818,
            30906
          ],
          [
            2816,
            30847
          ],
          [
            2816,
            30110
          ],
          [
            2818,
            30038
          ],
          [
            3234,
            29913
          ],
          [
            3412,
            29881
          ],
          [
            3436,
            29878
          ],
          [
            3452,
            29887
          ],
          [
            3938,
            30295
          ]
        ]
      ],
      [
        [
          [
            4002,
            30741
          ],
          [
            3965,
            30665
          ],
          [
            3977,
            30654
          ],
          [
            4039,
            30692
          ],
          [
            4054,
            30703
          ],
          [
            4059,
            30707
          ],
          [
            4051,
            30736
          ],
          [
            4049,
            30742
          ],
          [
            4040,
            30746
          ],
          [
            4008,
            30746
          ],
          [
            4002,
            30741
          ]
        ]
      ],
      [
        [
          [
            2559,
            30360
          ],
          [
            2558,
            31035
          ],
          [
            2536,
            31037
          ],
          [
            2505,
            31036
          ],
          [
            2229,
            30948
          ],
          [
            2209,
            30938
          ],
          [
            2204,
            30935
          ],
          [
            2157,
            30852
          ],
          [
            2142,
            30816
          ],
          [
            2123,
            30457
          ],
          [
            2125,
            30447
          ],
          [
            2130,
            30441
          ],
          [
            2251,
            30355
          ],
          [
            2256,
            30352
          ],
          [
            2507,
            30295
          ],
          [
            2556,
            30343
          ],
          [
            2559,
            30360
          ]
        ]
      ],
      [
        [
          [
            2447,
            29991
          ],
          [
            2442,
            30068
          ],
          [
            2432,
            30082
          ],
          [
            2424,
            30091
          ],
          [
            2245,
            30291
          ],
          [
            2230,
            30307
          ],
          [
            2169,
            30312
          ],
          [
            2095,
            30286
          ],
          [
            2085,
            30279
          ],
          [
            2071,
            30246
          ],
          [
            2069,
            30232
          ],
          [
            2085,
            30198
          ],
          [
            2246,
            29943
          ],
          [
            2253,
            29935
          ],
          [
            2272,
            29926
          ],
          [
            2289,
            29918
          ],
          [
            2388,
            29929
          ],
          [
            2415,
            29936
          ],
          [
            2447,
            29980
          ],
          [
            2447,
            29991
          ]
        ]
      ],
      [
        [
          [
            3048,
            31111
          ],
          [
            3212,
            31103
          ],
          [
            3234,
            31105
          ],
          [
            3253,
            31107
          ],
          [
            3264,
            31116
          ],
          [
            3265,
            31163
          ],
          [
            3261,
            31175
          ],
          [
            3251,
            31194
          ],
          [
            3171,
            31308
          ],
          [
            3105,
            31344
          ],
          [
            3098,
            31347
          ],
          [
            3041,
            31360
          ],
          [
            2958,
            31340
          ],
          [
            2967,
            31261
          ],
          [
            3048,
            31111
          ]
        ]
      ],
      [
        [
          [
            2481,
            30639
          ],
          [
            2496,
            30629
          ],
          [
            2551,
            30654
          ],
          [
            2556,
            30677
          ],
          [
            2559,
            30705
          ],
          [
            2558,
            30718
          ],
          [
            2549,
            30734
          ],
          [
            2518,
            30752
          ],
          [
            2505,
            30756
          ],
          [
            2493,
            30755
          ],
          [
            2464,
            30750
          ],
          [
            2458,
            30747
          ],
          [
            2447,
            30741
          ],
          [
            2433,
            30713
          ],
          [
            2430,
            30695
          ],
          [
            2430,
            30694
          ],
          [
            2433,
            30687
          ],
          [
            2481,
            30639
          ]
        ]
      ],
      [
        [
          [
            2817,
            31154
          ],
          [
            2817,
            31065
          ],
          [
            2832,
            31054
          ],
          [
            2870,
            31034
          ],
          [
            2884,
            31034
          ],
          [
            2933,
            31066
          ],
          [
            2938,
            31095
          ],
          [
            2940,
            31117
          ],
          [
            2935,
            31123
          ],
          [
            2919,
            31137
          ],
          [
            2890,
            31161
          ],
          [
            2853,
            31177
          ],
          [
            2839,
            31175
          ],
          [
            2829,
            31173
          ],
          [
            2817,
            31154
          ]
        ]
      ],
      [
        [
          [
            4057,
            30899
          ],
          [
            4061,
            30960
          ],
          [
            4054,
            30972
          ],
          [
            4043,
            30978
          ],
          [
            4029,
            30982
          ],
          [
            3984,
            30977
          ],
          [
            3973,
            30973
          ],
          [
            3928,
            30949
          ],
          [
            3905,
            30919
          ],
          [
            3884,
            30877
          ],
          [
            3885,
            30868
          ],
          [
            3887,
            30863
          ],
          [
            3904,
            30839
          ],
          [
            3912,
            30838
          ],
          [
            3921,
            30837
          ],
          [
            4035,
            30837
          ],
          [
            4043,
            30842
          ],
          [
            4057,
            30899
          ]
        ]
      ],
      [
        [
          [
            3961,
            31376
          ],
          [
            3958,
            31366
          ],
          [
            3968,
            31358
          ],
          [
            3992,
            31354
          ],
          [
            4003,
            31358
          ],
          [
            4015,
            31365
          ],
          [
            4009,
            31374
          ],
          [
            3985,
            31379
          ],
          [
            3970,
            31378
          ],
          [
            3961,
            31376
          ]
        ]
      ],
      [
        [
          [
            3313,
            30966
          ],
          [
            3334,
            30941
          ],
          [
            3388,
            30908
          ],
          [
            3396,
            30905
          ],
          [
            3410,
            30904
          ],
          [
            3438,
            30939
          ],
          [
            3449,
            30959
          ],
          [
            3457,
            30974
          ],
          [
            3457,
            30993
          ],
          [
            3437,
            31000
          ],
          [
            3420,
            31003
          ],
          [
            3344,
            31009
          ],
          [
            3339,
            31006
          ],
          [
            3313,
            30966
          ]
        ]
      ],
      [
        [
          [
            3463,
            29805
          ],
          [
            3420,
            29779
          ],
          [
            3457,
            29584
          ],
          [
            3467,
            29572
          ],
          [
            3471,
            29568
          ],
          [
            3496,
            29554
          ],
          [
            3503,
            29552
          ],
          [
            3517,
            29563
          ],
          [
            3521,
            29567
          ],
          [
            3585,
            29676
          ],
          [
            3585,
            29704
          ],
          [
            3548,
            29740
          ],
          [
            3463,
            29805
          ]
        ]
      ],
      [
        [
          [
            1829,
            31804
          ],
          [
            1913,
            31804
          ],
          [
            1913,
            31831
          ],
          [
            1829,
            31831
          ],
          [
            1829,
            31804
          ]
        ]
      ],
      [
        [
          [
            1691,
            31804
          ],
          [
            1775,
            31804
          ],
          [
            1775,
            31831
          ],
          [
            1691,
            31831
          ],
          [
            1691,
            31804
          ]
        ]
      ],
      [
        [
          [
            3592,
            31306
          ],
          [
            3553,
            31156
          ],
          [
            3553,
            31143
          ],
          [
            3557,
            31137
          ],
          [
            3592,
            31113
          ],
          [
            3686,
            31100
          ],
          [
            3720,
            31099
          ],
          [
            3724,
            31099
          ],
          [
            3752,
            31107
          ],
          [
            3785,
            31152
          ],
          [
            3785,
            31157
          ],
          [
            3778,
            31212
          ],
          [
            3776,
            31226
          ],
          [
            3775,
            31232
          ],
          [
            3705,
            31299
          ],
          [
            3650,
            31317
          ],
          [
            3632,
            31321
          ],
          [
            3599,
            31311
          ],
          [
            3592,
            31306
          ]
        ]
      ],
      [
        [
          [
            3725,
            29977
          ],
          [
            3716,
            29959
          ],
          [
            3717,
            29921
          ],
          [
            3735,
            29908
          ],
          [
            3801,
            29895
          ],
          [
            3827,
            29903
          ],
          [
            3838,
            29909
          ],
          [
            3861,
            29942
          ],
          [
            3869,
            29987
          ],
          [
            3857,
            30067
          ],
          [
            3855,
            30073
          ],
          [
            3845,
            30098
          ],
          [
            3725,
            29977
          ]
        ]
      ],
      [
        [
          [
            2195,
            31254
          ],
          [
            2194,
            31191
          ],
          [
            2240,
            31138
          ],
          [
            2303,
            31129
          ],
          [
            2335,
            31141
          ],
          [
            2364,
            31157
          ],
          [
            2436,
            31220
          ],
          [
            2432,
            31227
          ],
          [
            2405,
            31254
          ],
          [
            2299,
            31318
          ],
          [
            2289,
            31318
          ],
          [
            2250,
            31293
          ],
          [
            2233,
            31281
          ],
          [
            2195,
            31254
          ]
        ]
      ],
      [
        [
          [
            3542,
            30691
          ],
          [
            3570,
            30699
          ],
          [
            3692,
            30766
          ],
          [
            3695,
            30772
          ],
          [
            3704,
            30797
          ],
          [
            3705,
            30801
          ],
          [
            3706,
            30808
          ],
          [
            3704,
            30812
          ],
          [
            3700,
            30819
          ],
          [
            3652,
            30821
          ],
          [
            3567,
            30807
          ],
          [
            3544,
            30803
          ],
          [
            3522,
            30799
          ],
          [
            3490,
            30790
          ],
          [
            3489,
            30783
          ],
          [
            3491,
            30761
          ],
          [
            3492,
            30756
          ],
          [
            3510,
            30710
          ],
          [
            3537,
            30691
          ],
          [
            3542,
            30691
          ]
        ]
      ],
      [
        [
          [
            1408,
            31166
          ],
          [
            1407,
            31177
          ],
          [
            1323,
            31177
          ],
          [
            1305,
            31161
          ],
          [
            1323,
            31159
          ],
          [
            1407,
            31159
          ],
          [
            1408,
            31166
          ]
        ]
      ],
      [
        [
          [
            1795,
            29944
          ],
          [
            1795,
            29984
          ],
          [
            1794,
            29993
          ],
          [
            1786,
            29995
          ],
          [
            1768,
            29997
          ],
          [
            1750,
            29960
          ],
          [
            1772,
            29946
          ],
          [
            1795,
            29944
          ]
        ]
      ],
      [
        [
          [
            2821,
            31448
          ],
          [
            2816,
            31426
          ],
          [
            2823,
            31413
          ],
          [
            2836,
            31419
          ],
          [
            2843,
            31437
          ],
          [
            2821,
            31448
          ]
        ]
      ],
      [
        [
          [
            3272,
            29682
          ],
          [
            3273,
            29736
          ],
          [
            3257,
            29752
          ],
          [
            3201,
            29749
          ],
          [
            3198,
            29737
          ],
          [
            3199,
            29677
          ],
          [
            3200,
            29671
          ],
          [
            3245,
            29676
          ],
          [
            3272,
            29682
          ]
        ]
      ],
      [
        [
          [
            3511,
            30013
          ],
          [
            3514,
            29989
          ],
          [
            3520,
            29983
          ],
          [
            3574,
            29985
          ],
          [
            3581,
            29989
          ],
          [
            3598,
            30005
          ],
          [
            3620,
            30064
          ],
          [
            3609,
            30070
          ],
          [
            3534,
            30055
          ],
          [
            3523,
            30045
          ],
          [
            3517,
            30036
          ],
          [
            3511,
            30013
          ]
        ]
      ],
      [
        [
          [
            313,
            32727
          ],
          [
            799,
            32727
          ],
          [
            827,
            32759
          ],
          [
            341,
            32759
          ],
          [
            313,
            32727
          ]
        ]
      ],
      [
        [
          [
            3974,
            29984
          ],
          [
            3981,
            29959
          ],
          [
            4013,
            29943
          ],
          [
            4042,
            29953
          ],
          [
            4053,
            29964
          ],
          [
            4048,
            29983
          ],
          [
            4038,
            29993
          ],
          [
            4026,
            30001
          ],
          [
            4010,
            30002
          ],
          [
            3987,
            30002
          ],
          [
            3974,
            29984
          ]
        ]
      ],
      [
        [
          [
            3202,
            31557
          ],
          [
            3201,
            31527
          ],
          [
            3208,
            31531
          ],
          [
            3209,
            31561
          ],
          [
            3202,
            31557
          ]
        ]
      ],
      [
        [
          [
            2545,
            29709
          ],
          [
            2531,
            29700
          ],
          [
            2531,
            29699
          ],
          [
            2533,
            29677
          ],
          [
            2536,
            29674
          ],
          [
            2543,
            29671
          ],
          [
            2552,
            29670
          ],
          [
            2555,
            29671
          ],
          [
            2559,
            29675
          ],
          [
            2559,
            29694
          ],
          [
            2551,
            29704
          ],
          [
            2545,
            29709
          ]
        ]
      ],
      [
        [
          [
            3963,
            31614
          ],
          [
            3963,
            31648
          ],
          [
            3877,
            31649
          ],
          [
            3873,
            31649
          ],
          [
            3872,
            31646
          ],
          [
            3872,
            31616
          ],
          [
            3874,
            31615
          ],
          [
            3877,
            31614
          ],
          [
            3963,
            31614
          ]
        ]
      ],
      [
        [
          [
            724,
            30229
          ],
          [
            740,
            30229
          ],
          [
            742,
            30236
          ],
          [
            744,
            30249
          ],
          [
            741,
            30252
          ],
          [
            722,
            30253
          ],
          [
            723,
            30235
          ],
          [
            724,
            30229
          ]
        ]
      ]
    ]
  },
  "properties": {
    "name": "Islands Area",
    "total_islands": 28
  }
}